[
    {
        "Altitude(m)": 568384.9977600144,
        "Argument of Periapsis(deg)": 0.006622991110713501,
        "Eccentricity": 0.0,
        "Inclination(deg)": 53.0,
        "Latitude(deg)": -44.50139477273138,
        "Longitude(deg)": -38.33850447131944,
        "Mean Anomaly(deg)": -118.99930713242235,
        "RAAN(deg)": 194.99014336852804,
        "Satellite Name": "Starlink Shell 1 872",
        "Satellite Number": 872,
        "Semi-Major Axis(m)": 6931778.249405717,
        "Time(s)": 190
    },
    {
        "Altitude(m)": 568522.9509417566,
        "Argument of Periapsis(deg)": 0.0069715695902247375,
        "Eccentricity": 0.0,
        "Inclination(deg)": 53.0,
        "Latitude(deg)": -44.837229751020594,
        "Longitude(deg)": -37.63988355179212,
        "Mean Anomaly(deg)": -118.37247592886568,
        "RAAN(deg)": 194.98962459845055,
        "Satellite Name": "Starlink Shell 1 872",
        "Satellite Number": 872,
        "Semi-Major Axis(m)": 6931778.249405717,
        "Time(s)": 200
    },
    {
        "Altitude(m)": 568658.7419055005,
        "Argument of Periapsis(deg)": 0.007320148069735974,
        "Eccentricity": 0.0,
        "Inclination(deg)": 53.0,
        "Latitude(deg)": -45.16819096958872,
        "Longitude(deg)": -36.93270128883587,
        "Mean Anomaly(deg)": -117.74564472530894,
        "RAAN(deg)": 194.9891058283731,
        "Satellite Name": "Starlink Shell 1 872",
        "Satellite Number": 872,
        "Semi-Major Axis(m)": 6931778.249405717,
        "Time(s)": 210
    },
    {
        "Altitude(m)": 568792.317123954,
        "Argument of Periapsis(deg)": 0.007668726549247212,
        "Eccentricity": 0.0,
        "Inclination(deg)": 53.0,
        "Latitude(deg)": -45.494166809862406,
        "Longitude(deg)": -36.216887251263934,
        "Mean Anomaly(deg)": -117.11881352175224,
        "RAAN(deg)": 194.9885870582956,
        "Satellite Name": "Starlink Shell 1 872",
        "Satellite Number": 872,
        "Semi-Major Axis(m)": 6931778.249405717,
        "Time(s)": 220
    },
    {
        "Altitude(m)": 568923.6239078807,
        "Argument of Periapsis(deg)": 0.00801730502875845,
        "Eccentricity": 0.0,
        "Inclination(deg)": 53.0,
        "Latitude(deg)": -45.81504413514568,
        "Longitude(deg)": -35.49237728975552,
        "Mean Anomaly(deg)": -116.49198231819555,
        "RAAN(deg)": 194.98806828821816,
        "Satellite Name": "Starlink Shell 1 872",
        "Satellite Number": 872,
        "Semi-Major Axis(m)": 6931778.249405717,
        "Time(s)": 230
    },
    {
        "Altitude(m)": 569052.6104292464,
        "Argument of Periapsis(deg)": 0.008365883508269684,
        "Eccentricity": 0.0,
        "Inclination(deg)": 53.0,
        "Latitude(deg)": -46.13070836100082,
        "Longitude(deg)": -34.75911352418394,
        "Mean Anomaly(deg)": -115.86515111463875,
        "RAAN(deg)": 194.98754951814064,
        "Satellite Name": "Starlink Shell 1 872",
        "Satellite Number": 872,
        "Semi-Major Axis(m)": 6931778.249405717,
        "Time(s)": 240
    },
    {
        "Altitude(m)": 569179.2257439783,
        "Argument of Periapsis(deg)": 0.008714461987780921,
        "Eccentricity": 0.0,
        "Inclination(deg)": 53.0,
        "Latitude(deg)": -46.44104353435704,
        "Longitude(deg)": -34.0170458576149,
        "Mean Anomaly(deg)": -115.2383199110821,
        "RAAN(deg)": 194.9870307480632,
        "Satellite Name": "Starlink Shell 1 872",
        "Satellite Number": 872,
        "Semi-Major Axis(m)": 6931778.249405717,
        "Time(s)": 250
    },
    {
        "Altitude(m)": 569303.4198142865,
        "Argument of Periapsis(deg)": 0.009063040467292158,
        "Eccentricity": 0.0,
        "Inclination(deg)": 53.0,
        "Latitude(deg)": -46.745932421728654,
        "Longitude(deg)": -33.266131989778955,
        "Mean Anomaly(deg)": -114.61148870752541,
        "RAAN(deg)": 194.9865119779857,
        "Satellite Name": "Starlink Shell 1 872",
        "Satellite Number": 872,
        "Semi-Major Axis(m)": 6931778.249405717,
        "Time(s)": 260
    },
    {
        "Altitude(m)": 569425.1435306271,
        "Argument of Periapsis(deg)": 0.009411618946803396,
        "Eccentricity": 0.0,
        "Inclination(deg)": 53.0,
        "Latitude(deg)": -47.04525660690991,
        "Longitude(deg)": -32.50633744120371,
        "Mean Anomaly(deg)": -113.98465750396868,
        "RAAN(deg)": 194.98599320790825,
        "Satellite Name": "Starlink Shell 1 872",
        "Satellite Number": 872,
        "Semi-Major Axis(m)": 6931778.249405717,
        "Time(s)": 270
    },
    {
        "Altitude(m)": 569544.3487332062,
        "Argument of Periapsis(deg)": 0.009760197426314633,
        "Eccentricity": 0.0,
        "Inclination(deg)": 53.0,
        "Latitude(deg)": -47.33889659849072,
        "Longitude(deg)": -31.73763709892962,
        "Mean Anomaly(deg)": -113.35782630041197,
        "RAAN(deg)": 194.9854744378308,
        "Satellite Name": "Starlink Shell 1 872",
        "Satellite Number": 872,
        "Semi-Major Axis(m)": 6931778.249405717,
        "Time(s)": 280
    },
    {
        "Altitude(m)": 569660.9882330707,
        "Argument of Periapsis(deg)": 0.01010877590582587,
        "Eccentricity": 0.0,
        "Inclination(deg)": 53.0,
        "Latitude(deg)": -47.62673194750052,
        "Longitude(deg)": -30.96001525583776,
        "Mean Anomaly(deg)": -112.73099509685518,
        "RAAN(deg)": 194.9849556677533,
        "Satellite Name": "Starlink Shell 1 872",
        "Satellite Number": 872,
        "Semi-Major Axis(m)": 6931778.249405717,
        "Time(s)": 290
    },
    {
        "Altitude(m)": 569775.0158327477,
        "Argument of Periapsis(deg)": 0.010457354385337106,
        "Eccentricity": 0.0,
        "Inclination(deg)": 53.0,
        "Latitude(deg)": -47.90864137545623,
        "Longitude(deg)": -30.17346565396669,
        "Mean Anomaly(deg)": -112.10416389329849,
        "RAAN(deg)": 194.98443689767583,
        "Satellite Name": "Starlink Shell 1 872",
        "Satellite Number": 872,
        "Semi-Major Axis(m)": 6931778.249405717,
        "Time(s)": 300
    },
    {
        "Altitude(m)": 569886.3863464727,
        "Argument of Periapsis(deg)": 0.010805932864848343,
        "Eccentricity": 0.0,
        "Inclination(deg)": 53.0,
        "Latitude(deg)": -48.18450291304925,
        "Longitude(deg)": -29.3779930419064,
        "Mean Anomaly(deg)": -111.47733268974184,
        "RAAN(deg)": 194.98391812759837,
        "Satellite Name": "Starlink Shell 1 872",
        "Satellite Number": 872,
        "Semi-Major Axis(m)": 6931778.249405717,
        "Time(s)": 310
    },
    {
        "Altitude(m)": 569995.055619928,
        "Argument of Periapsis(deg)": 0.01115451134435958,
        "Eccentricity": 0.0,
        "Inclination(deg)": 53.0,
        "Latitude(deg)": -48.45419404964835,
        "Longitude(deg)": -28.573613217446994,
        "Mean Anomaly(deg)": -110.85050148618507,
        "RAAN(deg)": 194.98339935752088,
        "Satellite Name": "Starlink Shell 1 872",
        "Satellite Number": 872,
        "Semi-Major Axis(m)": 6931778.249405717,
        "Time(s)": 320
    },
    {
        "Altitude(m)": 570100.9805495245,
        "Argument of Periapsis(deg)": 0.011503089823870818,
        "Eccentricity": 0.0,
        "Inclination(deg)": 53.0,
        "Latitude(deg)": -48.71759189374548,
        "Longitude(deg)": -27.760353064996547,
        "Mean Anomaly(deg)": -110.22367028262842,
        "RAAN(deg)": 194.9828805874434,
        "Satellite Name": "Starlink Shell 1 872",
        "Satellite Number": 872,
        "Semi-Major Axis(m)": 6931778.249405717,
        "Time(s)": 330
    },
    {
        "Altitude(m)": 570204.1191012342,
        "Argument of Periapsis(deg)": 0.011851668303382053,
        "Eccentricity": 0.0,
        "Inclination(deg)": 53.0,
        "Latitude(deg)": -48.974573344409315,
        "Longitude(deg)": -26.93825209699454,
        "Mean Anomaly(deg)": -109.59683907907163,
        "RAAN(deg)": 194.98236181736593,
        "Satellite Name": "Starlink Shell 1 872",
        "Satellite Number": 872,
        "Semi-Major Axis(m)": 6931778.249405717,
        "Time(s)": 340
    },
    {
        "Altitude(m)": 570304.4303289376,
        "Argument of Periapsis(deg)": 0.012200246782893292,
        "Eccentricity": 0.0,
        "Inclination(deg)": 53.0,
        "Latitude(deg)": -49.22501527372986,
        "Longitude(deg)": -26.107362469658167,
        "Mean Anomaly(deg)": -108.97000787551494,
        "RAAN(deg)": 194.98184304728844,
        "Satellite Name": "Starlink Shell 1 872",
        "Satellite Number": 872,
        "Semi-Major Axis(m)": 6931778.249405717,
        "Time(s)": 350
    },
    {
        "Altitude(m)": 570401.8743922642,
        "Argument of Periapsis(deg)": 0.012548825262404526,
        "Eccentricity": 0.0,
        "Inclination(deg)": 53.0,
        "Latitude(deg)": -49.46879472017032,
        "Longitude(deg)": -25.267748981751122,
        "Mean Anomaly(deg)": -108.34317667195823,
        "RAAN(deg)": 194.98132427721097,
        "Satellite Name": "Starlink Shell 1 872",
        "Satellite Number": 872,
        "Semi-Major Axis(m)": 6931778.249405717,
        "Time(s)": 360
    },
    {
        "Altitude(m)": 570496.4125739863,
        "Argument of Periapsis(deg)": 0.012897403741915765,
        "Eccentricity": 0.0,
        "Inclination(deg)": 53.0,
        "Latitude(deg)": -49.705789092652886,
        "Longitude(deg)": -24.41949056483836,
        "Mean Anomaly(deg)": -107.71634546840149,
        "RAAN(deg)": 194.98080550713354,
        "Satellite Name": "Starlink Shell 1 872",
        "Satellite Number": 872,
        "Semi-Major Axis(m)": 6931778.249405717,
        "Time(s)": 370
    }
]